{
  "norad_id": 65116,
  "name": "QPS-SAR-12 (KUSHINADA-I)",
  "history": [
    {
      "epoch": "2026-03-28T18:17:01.944384",
      "apogee_km": 570.5814557782114,
      "perigee_km": 562.6350004983678,
      "latitude_deg": 27.87132786001492,
      "longitude_deg": 44.73549376009032,
      "semi_major_axis_km": 6944.745228138289,
      "eccentricity": 0.00057212,
      "inclination_deg": 42.0113,
      "raan_deg": 98.6354,
      "arg_perigee_deg": 36.7697,
      "mean_anomaly_deg": 323.352,
      "mean_motion_rev_day": 15.00093347
    },
    {
      "epoch": "2026-03-29T02:16:25.472064",
      "apogee_km": 570.5445644948231,
      "perigee_km": 562.6442380527342,
      "latitude_deg": -9.627497572706277,
      "longitude_deg": 76.6949689600151,
      "semi_major_axis_km": 6944.731401273779,
      "eccentricity": 0.0005688,
      "inclination_deg": 42.0112,
      "raan_deg": 96.8042,
      "arg_perigee_deg": 39.2159,
      "mean_anomaly_deg": 320.9078,
      "mean_motion_rev_day": 15.00097827
    }
  ]
}